{
  "type": "FeatureCollection",
  "features": [
    {
      "type": "Feature",
      "properties": {
        "norad_id": 32376,
        "name": "COSMO-SKYMED 2",
        "group": "resource",
        "lat": -23.85748942296042,
        "lon": -1.622015738808342,
        "alt_km": 628.5218286021254,
        "timestamp": "2025-12-26T18:39:31.928920+00:00",
        "meta_object_name": "COSMO-SKYMED 2",
        "meta_object_id": "2007-059A",
        "meta_epoch": "2025-12-26T16:07:16.398912",
        "meta_mean_motion": 14.82159872,
        "meta_eccentricity": 0.00012951,
        "meta_inclination": 97.8806,
        "meta_ra_of_asc_node": 181.7858,
        "meta_arg_of_pericenter": 83.13,
        "meta_mean_anomaly": 277.006,
        "meta_ephemeris_type": 0,
        "meta_classification_type": "U",
        "meta_norad_cat_id": 32376,
        "meta_element_set_no": 999,
        "meta_rev_at_epoch": 97644,
        "meta_bstar": 8.3902315e-05,
        "meta_mean_motion_dot": 6.16e-06,
        "meta_mean_motion_ddot": 0,
        "tle_line1": "1 32376U 07059A   25360.67171758  .00000616  00000+0  83902-4 0  9998",
        "tle_line2": "2 32376  97.8806 181.7858 0001295  83.1300 277.0060 14.82159872976440"
      },
      "geometry": {
        "type": "Point",
        "coordinates": [
          -1.622015738808342,
          -23.85748942296042
        ]
      }
    },
    {
      "type": "Feature",
      "properties": {
        "norad_id": 32382,
        "name": "RADARSAT-2",
        "group": "resource",
        "lat": 40.244787019516956,
        "lon": -2.1785076316566565,
        "alt_km": 788.0095771455462,
        "timestamp": "2025-12-26T18:39:31.928930+00:00",
        "meta_object_name": "RADARSAT-2",
        "meta_object_id": "2007-061A",
        "meta_epoch": "2025-12-26T15:06:36.544896",
        "meta_mean_motion": 14.29986012,
        "meta_eccentricity": 0.00011291,
        "meta_inclination": 98.58,
        "meta_ra_of_asc_node": 5.0175,
        "meta_arg_of_pericenter": 84.8356,
        "meta_mean_anomaly": 275.2955,
        "meta_ephemeris_type": 0,
        "meta_classification_type": "U",
        "meta_norad_cat_id": 32382,
        "meta_element_set_no": 999,
        "meta_rev_at_epoch": 94129,
        "meta_bstar": 0.00010976,
        "meta_mean_motion_dot": 2.39e-06,
        "meta_mean_motion_ddot": 0,
        "tle_line1": "1 32382U 07061A   25360.62958964  .00000239  00000+0  10976-3 0  9996",
        "tle_line2": "2 32382  98.5800   5.0175 0001129  84.8356 275.2955 14.29986012941297"
      },
      "geometry": {
        "type": "Point",
        "coordinates": [
          -2.1785076316566565,
          40.244787019516956
        ]
      }
    },
    {
      "type": "Feature",
      "properties": {
        "norad_id": 32783,
        "name": "CARTOSAT-2A",
        "group": "resource",
        "lat": -1.7710607448128097,
        "lon": -130.0817295635846,
        "alt_km": 641.3829722928831,
        "timestamp": "2025-12-26T18:39:31.928941+00:00",
        "meta_object_name": "CARTOSAT-2A",
        "meta_object_id": "2008-021A",
        "meta_epoch": "2025-12-26T14:35:30.274656",
        "meta_mean_motion": 14.78955866,
        "meta_eccentricity": 0.00109015,
        "meta_inclination": 97.7907,
        "meta_ra_of_asc_node": 49.9967,
        "meta_arg_of_pericenter": 318.3856,
        "meta_mean_anomaly": 41.6525,
        "meta_ephemeris_type": 0,
        "meta_classification_type": "U",
        "meta_norad_cat_id": 32783,
        "meta_element_set_no": 999,
        "meta_rev_at_epoch": 95329,
        "meta_bstar": 0.00010073137,
        "meta_mean_motion_dot": 6.93e-06,
        "meta_mean_motion_ddot": 0,
        "tle_line1": "1 32783U 08021A   25360.60798929  .00000693  00000+0  10073-3 0  9991",
        "tle_line2": "2 32783  97.7907  49.9967 0010901 318.3856  41.6525 14.78955866953293"
      },
      "geometry": {
        "type": "Point",
        "coordinates": [
          -130.0817295635846,
          -1.7710607448128097
        ]
      }
    },
    {
      "type": "Feature",
      "properties": {
        "norad_id": 33320,
        "name": "HUANJING 1A (HJ-1A)",
        "group": "resource",
        "lat": -82.01828513776428,
        "lon": 62.0773989773001,
        "alt_km": 622.8713415135126,
        "timestamp": "2025-12-26T18:39:31.928957+00:00",
        "meta_object_name": "HUANJING 1A (HJ-1A)",
        "meta_object_id": "2008-041A",
        "meta_epoch": "2025-12-26T14:11:46.641984",
        "meta_mean_motion": 14.83437192,
        "meta_eccentricity": 0.001906,
        "meta_inclination": 97.6553,
        "meta_ra_of_asc_node": 348.312,
        "meta_arg_of_pericenter": 350.0346,
        "meta_mean_anomaly": 10.0488,
        "meta_ephemeris_type": 0,
        "meta_classification_type": "U",
        "meta_norad_cat_id": 33320,
        "meta_element_set_no": 999,
        "meta_rev_at_epoch": 93281,
        "meta_bstar": 0.00023594641,
        "meta_mean_motion_dot": 1.892e-05,
        "meta_mean_motion_ddot": 0,
        "tle_line1": "1 33320U 08041A   25360.59151206  .00001892  00000+0  23595-3 0  9995",
        "tle_line2": "2 33320  97.6553 348.3120 0019060 350.0346  10.0488 14.83437192932812"
      },
      "geometry": {
        "type": "Point",
        "coordinates": [
          62.0773989773001,
          -82.01828513776428
        ]
      }
    },
    {
      "type": "Feature",
      "properties": {
        "norad_id": 33321,
        "name": "HUANJING 1B (HJ-1B)",
        "group": "resource",
        "lat": 73.28830673312937,
        "lon": -161.28874463772584,
        "alt_km": 605.7789799712646,
        "timestamp": "2025-12-26T18:39:31.928968+00:00",
        "meta_object_name": "HUANJING 1B (HJ-1B)",
        "meta_object_id": "2008-041B",
        "meta_epoch": "2025-12-26T14:57:05.472000",
        "meta_mean_motion": 14.82859513,
        "meta_eccentricity": 0.00376752,
        "meta_inclination": 97.6412,
        "meta_ra_of_asc_node": 352.0026,
        "meta_arg_of_pericenter": 31.7378,
        "meta_mean_anomaly": 328.6096,
        "meta_ephemeris_type": 0,
        "meta_classification_type": "U",
        "meta_norad_cat_id": 33321,
        "meta_element_set_no": 999,
        "meta_rev_at_epoch": 93283,
        "meta_bstar": 0.00022936671,
        "meta_mean_motion_dot": 1.829e-05,
        "meta_mean_motion_ddot": 0,
        "tle_line1": "1 33321U 08041B   25360.62298000  .00001829  00000+0  22937-3 0  9993",
        "tle_line2": "2 33321  97.6412 352.0026 0037675  31.7378 328.6096 14.82859513932833"
      },
      "geometry": {
        "type": "Point",
        "coordinates": [
          -161.28874463772584,
          73.28830673312937
        ]
      }
    },
    {
      "type": "Feature",
      "properties": {
        "norad_id": 33331,
        "name": "GEOEYE 1",
        "group": "resource",
        "lat": -74.93544060846017,
        "lon": -140.17122397791175,
        "alt_km": 683.4699410475596,
        "timestamp": "2025-12-26T18:39:31.928978+00:00",
        "meta_object_name": "GEOEYE 1",
        "meta_object_id": "2008-042A",
        "meta_epoch": "2025-12-26T14:12:31.695264",
        "meta_mean_motion": 14.64718673,
        "meta_eccentricity": 0.00030703,
        "meta_inclination": 98.1236,
        "meta_ra_of_asc_node": 71.6971,
        "meta_arg_of_pericenter": 225.1588,
        "meta_mean_anomaly": 134.9366,
        "meta_ephemeris_type": 0,
        "meta_classification_type": "U",
        "meta_norad_cat_id": 33331,
        "meta_element_set_no": 999,
        "meta_rev_at_epoch": 92488,
        "meta_bstar": 0.00012695438,
        "meta_mean_motion_dot": 6.28e-06,
        "meta_mean_motion_ddot": 0,
        "tle_line1": "1 33331U 08042A   25360.59203351  .00000628  00000+0  12695-3 0  9992",
        "tle_line2": "2 33331  98.1236  71.6971 0003070 225.1588 134.9366 14.64718673924886"
      },
      "geometry": {
        "type": "Point",
        "coordinates": [
          -140.17122397791175,
          -74.93544060846017
        ]
      }
    },
    {
      "type": "Feature",
      "properties": {
        "norad_id": 33396,
        "name": "THEOS",
        "group": "resource",
        "lat": 21.84224583744253,
        "lon": 54.98037038159828,
        "alt_km": 824.4031656043189,
        "timestamp": "2025-12-26T18:39:31.928989+00:00",
        "meta_object_name": "THEOS",
        "meta_object_id": "2008-049A",
        "meta_epoch": "2025-12-26T15:10:23.369952",
        "meta_mean_motion": 14.20100767,
        "meta_eccentricity": 0.00012031,
        "meta_inclination": 98.5843,
        "meta_ra_of_asc_node": 58.3106,
        "meta_arg_of_pericenter": 90.8743,
        "meta_mean_anomaly": 269.2572,
        "meta_ephemeris_type": 0,
        "meta_classification_type": "U",
        "meta_norad_cat_id": 33396,
        "meta_element_set_no": 999,
        "meta_rev_at_epoch": 89347,
        "meta_bstar": 0.00018892467,
        "meta_mean_motion_dot": 3.6e-06,
        "meta_mean_motion_ddot": 0,
        "tle_line1": "1 33396U 08049A   25360.63221493  .00000360  00000+0  18892-3 0  9990",
        "tle_line2": "2 33396  98.5843  58.3106 0001203  90.8743 269.2572 14.20100767893475"
      },
      "geometry": {
        "type": "Point",
        "coordinates": [
          54.98037038159828,
          21.84224583744253
        ]
      }
    }
  ]
}